CCSDS_OMM_VERS = 2.0
CREATION_DATE  = 
ORIGINATOR     = 

OBJECT_NAME    = IDEFIX & ARIANE 42P R/B
OBJECT_ID      = 2002-021B
CENTER_NAME    = EARTH
REF_FRAME      = TEME
TIME_SYSTEM    = UTC
MEAN_ELEMENT_THEORY = SGP/SGP4

EPOCH          = 2026-02-16T05:45:42.438528
MEAN_MOTION    = 14.31010384
ECCENTRICITY   = .00106299
INCLINATION    = 98.5850
RA_OF_ASC_NODE = 346.1057
ARG_OF_PERICENTER = 249.7810
MEAN_ANOMALY   = 110.2230

EPHEMERIS_TYPE = 0
CLASSIFICATION_TYPE = U
NORAD_CAT_ID   = 27422
ELEMENT_SET_NO = 999
REV_AT_EPOCH   = 24095
BSTAR          = .12764724E-3
MEAN_MOTION_DOT = .292E-5
MEAN_MOTION_DDOT = 0

CCSDS_OMM_VERS = 2.0
CREATION_DATE  = 
ORIGINATOR     = 

OBJECT_NAME    = AQUA
OBJECT_ID      = 2002-022A
CENTER_NAME    = EARTH
REF_FRAME      = TEME
TIME_SYSTEM    = UTC
MEAN_ELEMENT_THEORY = SGP/SGP4

EPOCH          = 2026-02-16T06:29:19.914432
MEAN_MOTION    = 14.61922722
ECCENTRICITY   = .00012467
INCLINATION    = 98.4135
RA_OF_ASC_NODE = 14.2520
ARG_OF_PERICENTER = 48.3417
MEAN_ANOMALY   = 56.2187

EPHEMERIS_TYPE = 0
CLASSIFICATION_TYPE = U
NORAD_CAT_ID   = 27424
ELEMENT_SET_NO = 999
REV_AT_EPOCH   = 26560
BSTAR          = .23592498E-3
MEAN_MOTION_DOT = .1132E-4
MEAN_MOTION_DDOT = 0

CCSDS_OMM_VERS = 2.0
CREATION_DATE  = 
ORIGINATOR     = 

OBJECT_NAME    = CZ-4B R/B
OBJECT_ID      = 2002-024C
CENTER_NAME    = EARTH
REF_FRAME      = TEME
TIME_SYSTEM    = UTC
MEAN_ELEMENT_THEORY = SGP/SGP4

EPOCH          = 2026-02-16T03:16:51.089952
MEAN_MOTION    = 14.14543638
ECCENTRICITY   = .00511966
INCLINATION    = 98.8889
RA_OF_ASC_NODE = 100.6469
ARG_OF_PERICENTER = 84.5325
MEAN_ANOMALY   = 293.0455

EPHEMERIS_TYPE = 0
CLASSIFICATION_TYPE = U
NORAD_CAT_ID   = 27432
ELEMENT_SET_NO = 999
REV_AT_EPOCH   = 22619
BSTAR          = .48879342E-4
MEAN_MOTION_DOT = .51E-6
MEAN_MOTION_DDOT = 0

CCSDS_OMM_VERS = 2.0
CREATION_DATE  = 
ORIGINATOR     = 

OBJECT_NAME    = MIDORI II (ADEOS-II)
OBJECT_ID      = 2002-056A
CENTER_NAME    = EARTH
REF_FRAME      = TEME
TIME_SYSTEM    = UTC
MEAN_ELEMENT_THEORY = SGP/SGP4

EPOCH          = 2026-02-15T19:43:47.247168
MEAN_MOTION    = 14.29268635
ECCENTRICITY   = .00021635
INCLINATION    = 98.7730
RA_OF_ASC_NODE = 5.1541
ARG_OF_PERICENTER = 72.3958
MEAN_ANOMALY   = 287.7460

EPHEMERIS_TYPE = 0
CLASSIFICATION_TYPE = U
NORAD_CAT_ID   = 27597
ELEMENT_SET_NO = 999
REV_AT_EPOCH   = 20717
BSTAR          = .14891694E-3
MEAN_MOTION_DOT = .333E-5
MEAN_MOTION_DDOT = 0

CCSDS_OMM_VERS = 2.0
CREATION_DATE  = 
ORIGINATOR     = 

OBJECT_NAME    = H-2A R/B
OBJECT_ID      = 2002-056E
CENTER_NAME    = EARTH
REF_FRAME      = TEME
TIME_SYSTEM    = UTC
MEAN_ELEMENT_THEORY = SGP/SGP4

EPOCH          = 2026-02-15T20:42:05.455296
MEAN_MOTION    = 14.33745370
ECCENTRICITY   = .0069231
INCLINATION    = 98.3163
RA_OF_ASC_NODE = 8.0646
ARG_OF_PERICENTER = 226.0102
MEAN_ANOMALY   = 188.2229

EPHEMERIS_TYPE = 0
CLASSIFICATION_TYPE = U
NORAD_CAT_ID   = 27601
ELEMENT_SET_NO = 999
REV_AT_EPOCH   = 21098
BSTAR          = .12517E-3
MEAN_MOTION_DOT = .315E-5
MEAN_MOTION_DDOT = 0

CCSDS_OMM_VERS = 2.0
CREATION_DATE  = 
ORIGINATOR     = 

OBJECT_NAME    = CZ-4B R/B
OBJECT_ID      = 2003-049C
CENTER_NAME    = EARTH
REF_FRAME      = TEME
TIME_SYSTEM    = UTC
MEAN_ELEMENT_THEORY = SGP/SGP4

EPOCH          = 2026-02-15T23:55:06.199392
MEAN_MOTION    = 14.54996800
ECCENTRICITY   = .00471342
INCLINATION    = 98.6855
RA_OF_ASC_NODE = 41.0544
ARG_OF_PERICENTER = 298.7163
MEAN_ANOMALY   = 60.9300

EPHEMERIS_TYPE = 0
CLASSIFICATION_TYPE = U
NORAD_CAT_ID   = 28059
ELEMENT_SET_NO = 999
REV_AT_EPOCH   = 18344
BSTAR          = .12875927E-3
MEAN_MOTION_DOT = .51E-5
MEAN_MOTION_DDOT = 0

CCSDS_OMM_VERS = 2.0
CREATION_DATE  = 
ORIGINATOR     = 

OBJECT_NAME    = CZ-2C R/B
OBJECT_ID      = 2004-012C
CENTER_NAME    = EARTH
REF_FRAME      = TEME
TIME_SYSTEM    = UTC
MEAN_ELEMENT_THEORY = SGP/SGP4

EPOCH          = 2026-02-16T03:56:16.828224
MEAN_MOTION    = 15.61992871
ECCENTRICITY   = .00151159
INCLINATION    = 97.7289
RA_OF_ASC_NODE = 110.4566
ARG_OF_PERICENTER = 33.9022
MEAN_ANOMALY   = 326.3198

EPHEMERIS_TYPE = 0
CLASSIFICATION_TYPE = U
NORAD_CAT_ID   = 28222
ELEMENT_SET_NO = 999
REV_AT_EPOCH   = 20091
BSTAR          = .58980777E-3
MEAN_MOTION_DOT = .51823E-3
MEAN_MOTION_DDOT = 0

CCSDS_OMM_VERS = 2.0
CREATION_DATE  = 
ORIGINATOR     = 

OBJECT_NAME    = SL-16 R/B
OBJECT_ID      = 2004-021B
CENTER_NAME    = EARTH
REF_FRAME      = TEME
TIME_SYSTEM    = UTC
MEAN_ELEMENT_THEORY = SGP/SGP4

EPOCH          = 2026-02-16T02:26:38.497344
MEAN_MOTION    = 14.14594152
ECCENTRICITY   = .00031977
INCLINATION    = 70.9989
RA_OF_ASC_NODE = 277.7982
ARG_OF_PERICENTER = 62.0533
MEAN_ANOMALY   = 298.0913

EPHEMERIS_TYPE = 0
CLASSIFICATION_TYPE = U
NORAD_CAT_ID   = 28353
ELEMENT_SET_NO = 999
REV_AT_EPOCH   = 11978
BSTAR          = .20490824E-3
MEAN_MOTION_DOT = .346E-5
MEAN_MOTION_DDOT = 0

CCSDS_OMM_VERS = 2.0
CREATION_DATE  = 
ORIGINATOR     = 

OBJECT_NAME    = CZ-4B R/B
OBJECT_ID      = 2004-035C
CENTER_NAME    = EARTH
REF_FRAME      = TEME
TIME_SYSTEM    = UTC
MEAN_ELEMENT_THEORY = SGP/SGP4

EPOCH          = 2026-02-16T01:10:07.166784
MEAN_MOTION    = 15.28654473
ECCENTRICITY   = .00336186
INCLINATION    = 97.3533
RA_OF_ASC_NODE = 81.5541
ARG_OF_PERICENTER = 47.9556
MEAN_ANOMALY   = 312.4536

EPHEMERIS_TYPE = 0
CLASSIFICATION_TYPE = U
NORAD_CAT_ID   = 28415
ELEMENT_SET_NO = 999
REV_AT_EPOCH   = 17660
BSTAR          = .31848855E-3
MEAN_MOTION_DOT = .8951E-4
MEAN_MOTION_DDOT = 0

CCSDS_OMM_VERS = 2.0
CREATION_DATE  = 
ORIGINATOR     = 

OBJECT_NAME    = CZ-2C R/B
OBJECT_ID      = 2004-046B
CENTER_NAME    = EARTH
REF_FRAME      = TEME
TIME_SYSTEM    = UTC
MEAN_ELEMENT_THEORY = SGP/SGP4

EPOCH          = 2026-02-16T05:44:51.353664
MEAN_MOTION    = 14.26984376
ECCENTRICITY   = .01385601
INCLINATION    = 98.1995
RA_OF_ASC_NODE = 323.5562
ARG_OF_PERICENTER = 217.9461
MEAN_ANOMALY   = 141.1896

EPHEMERIS_TYPE = 0
CLASSIFICATION_TYPE = U
NORAD_CAT_ID   = 28480
ELEMENT_SET_NO = 999
REV_AT_EPOCH   = 10544
BSTAR          = .54594487E-4
MEAN_MOTION_DOT = .105E-5
MEAN_MOTION_DDOT = 0

CCSDS_OMM_VERS = 2.0
CREATION_DATE  = 
ORIGINATOR     = 

OBJECT_NAME    = ARIANE 5 R/B
OBJECT_ID      = 2004-049H
CENTER_NAME    = EARTH
REF_FRAME      = TEME
TIME_SYSTEM    = UTC
MEAN_ELEMENT_THEORY = SGP/SGP4

EPOCH          = 2026-02-16T00:10:15.272544
MEAN_MOTION    = 14.85222826
ECCENTRICITY   = .00853171
INCLINATION    = 98.2590
RA_OF_ASC_NODE = 214.6581
ARG_OF_PERICENTER = 61.8152
MEAN_ANOMALY   = 299.1646

EPHEMERIS_TYPE = 0
CLASSIFICATION_TYPE = U
NORAD_CAT_ID   = 28499
ELEMENT_SET_NO = 999
REV_AT_EPOCH   = 14257
BSTAR          = .11367251E-3
MEAN_MOTION_DOT = .976E-5
MEAN_MOTION_DDOT = 0

CCSDS_OMM_VERS = 2.0
CREATION_DATE  = 
ORIGINATOR     = 

OBJECT_NAME    = CZ-2D R/B
OBJECT_ID      = 2005-024B
CENTER_NAME    = EARTH
REF_FRAME      = TEME
TIME_SYSTEM    = UTC
MEAN_ELEMENT_THEORY = SGP/SGP4

EPOCH          = 2026-02-16T00:22:51.658752
MEAN_MOTION    = 15.58193082
ECCENTRICITY   = .00076671
INCLINATION    = 97.3607
RA_OF_ASC_NODE = 61.4007
ARG_OF_PERICENTER = 98.3544
MEAN_ANOMALY   = 261.8581

EPHEMERIS_TYPE = 0
CLASSIFICATION_TYPE = U
NORAD_CAT_ID   = 28738
ELEMENT_SET_NO = 999
REV_AT_EPOCH   = 13640
BSTAR          = .55931492E-3
MEAN_MOTION_DOT = .42299E-3
MEAN_MOTION_DDOT = 0

