IDEFIX & ARIANE 42P R/B 
1 27422U 02021B   26047.24007452  .00000292  00000+0  12765-3 0  9991
2 27422  98.5850 346.1057 0010629 249.7810 110.2230 14.31010384240953
AQUA                    
1 27424U 02022A   26047.27036938  .00001132  00000+0  23592-3 0  9992
2 27424  98.4135  14.2520 0001246  48.3417  56.2187 14.61922722265609
CZ-4B R/B               
1 27432U 02024C   26047.13670243  .00000051  00000+0  48879-4 0  9996
2 27432  98.8889 100.6469 0051196  84.5325 293.0455 14.14543638226192
MIDORI II (ADEOS-II)    
1 27597U 02056A   26046.82207462  .00000333  00000+0  14892-3 0  9997
2 27597  98.7730   5.1541 0002163  72.3958 287.7460 14.29268635207175
H-2A R/B                
1 27601U 02056E   26046.86256314  .00000315  00000+0  12517-3 0  9999
2 27601  98.3163   8.0646 0069231 226.0102 188.2229 14.33745370210985
CZ-4B R/B               
1 28059U 03049C   26046.99659953  .00000510  00000+0  12876-3 0  9995
2 28059  98.6855  41.0544 0047134 298.7163  60.9300 14.54996800183444
CZ-2C R/B               
1 28222U 04012C   26047.16408366  .00051823  00000+0  58981-3 0  9998
2 28222  97.7289 110.4566 0015115  33.9022 326.3198 15.61992871200918
SL-16 R/B               
1 28353U 04021B   26047.10183446  .00000346  00000+0  20491-3 0  9995
2 28353  70.9989 277.7982 0003197  62.0533 298.0913 14.14594152119780
CZ-4B R/B               
1 28415U 04035C   26047.04869406  .00008951  00000+0  31849-3 0  9998
2 28415  97.3533  81.5541 0033618  47.9556 312.4536 15.28654473176602
CZ-2C R/B               
1 28480U 04046B   26047.23948326  .00000105  00000+0  54594-4 0  9998
2 28480  98.1995 323.5562 0138560 217.9461 141.1896 14.26984376105448
ARIANE 5 R/B            
1 28499U 04049H   26047.00712121  .00000976  00000+0  11367-3 0  9994
2 28499  98.2590 214.6581 0085317  61.8152 299.1646 14.85222826142577
CZ-2D R/B               
1 28738U 05024B   26047.01587568  .00042299  00000+0  55931-3 0  9999
2 28738  97.3607  61.4007 0007667  98.3544 261.8581 15.58193082136406
